{"type": "FeatureCollection", "features": [ {"type": "Feature", "properties": {"norad_id": 37834, "name": "INTELSAT 18 (IS-18)", "group": "intelsat", "lat": -0.02697349654514594, "lon": -172.57212215235606, "alt_km": 35783.05448593579, "timestamp": "2025-12-05T19:30:25.235066+00:00", "meta": {"OBJECT_NAME": "INTELSAT 18 (IS-18)", "OBJECT_ID": "2011-056A", "EPOCH": "2025-12-04T19:43:08.401728", "MEAN_MOTION": 1.00271074, "ECCENTRICITY": 0.0002114, "INCLINATION": 0.0126, "RA_OF_ASC_NODE": 297.1344, "ARG_OF_PERICENTER": 319.7042, "MEAN_ANOMALY": 292.832, "EPHEMERIS_TYPE": 0, "CLASSIFICATION_TYPE": "U", "NORAD_CAT_ID": 37834, "ELEMENT_SET_NO": 999, "REV_AT_EPOCH": 5186, "BSTAR": 0, "MEAN_MOTION_DOT": 6.7e-07, "MEAN_MOTION_DDOT": 0}, "tle": {"line1": "1 37834U 11056A   25338.82162502  .00000067  00000+0  00000+0 0  9996", "line2": "2 37834   0.0126 297.1344 0002114 319.7042 292.8320  1.00271074 51868"}}, "geometry": {"type": "Point", "coordinates": [-172.57212215235606, -0.02697349654514594]}}, {"type": "Feature", "properties": {"norad_id": 38098, "name": "INTELSAT 22 (IS-22)", "group": "intelsat", "lat": 0.028892245978266617, "lon": 79.55924129943168, "alt_km": 35793.4618665227, "timestamp": "2025-12-05T19:30:25.235078+00:00", "meta": {"OBJECT_NAME": "INTELSAT 22 (IS-22)", "OBJECT_ID": "2012-011A", "EPOCH": "2025-12-05T02:03:18.241920", "MEAN_MOTION": 1.00271022, "ECCENTRICITY": 0.00016952, "INCLINATION": 0.0065, "RA_OF_ASC_NODE": 4.2211, "ARG_OF_PERICENTER": 257.4518, "MEAN_ANOMALY": 275.4067, "EPHEMERIS_TYPE": 0, "CLASSIFICATION_TYPE": "U", "NORAD_CAT_ID": 38098, "ELEMENT_SET_NO": 999, "REV_AT_EPOCH": 524, "BSTAR": 0, "MEAN_MOTION_DOT": -4.6e-07, "MEAN_MOTION_DDOT": 0}, "tle": {"line1": "1 38098U 12011A   25339.08562780 -.00000046  00000+0  00000+0 0  9990", "line2": "2 38098   0.0065   4.2211 0001695 257.4518 275.4067  1.00271022  5241"}}, "geometry": {"type": "Point", "coordinates": [79.55924129943168, 0.028892245978266617]}}, {"type": "Feature", "properties": {"norad_id": 38356, "name": "INTELSAT 19 (IS-19)", "group": "intelsat", "lat": -0.013982235233946311, "lon": 173.41804310315965, "alt_km": 35785.62803264555, "timestamp": "2025-12-05T19:30:25.235090+00:00", "meta": {"OBJECT_NAME": "INTELSAT 19 (IS-19)", "OBJECT_ID": "2012-030A", "EPOCH": "2025-12-04T19:39:08.785152", "MEAN_MOTION": 1.0026986, "ECCENTRICITY": 0.000349, "INCLINATION": 0.011, "RA_OF_ASC_NODE": 331.3941, "ARG_OF_PERICENTER": 288.2851, "MEAN_ANOMALY": 275.0025, "EPHEMERIS_TYPE": 0, "CLASSIFICATION_TYPE": "U", "NORAD_CAT_ID": 38356, "ELEMENT_SET_NO": 999, "REV_AT_EPOCH": 4850, "BSTAR": 0, "MEAN_MOTION_DOT": -4.3e-07, "MEAN_MOTION_DDOT": 0}, "tle": {"line1": "1 38356U 12030A   25338.81885168 -.00000043  00000+0  00000+0 0  9993", "line2": "2 38356   0.0110 331.3941 0003490 288.2851 275.0025  1.00269860 48503"}}, "geometry": {"type": "Point", "coordinates": [173.41804310315965, -0.013982235233946311]}}, {"type": "Feature", "properties": {"norad_id": 38740, "name": "INTELSAT 20 (IS-20)", "group": "intelsat", "lat": 0.03858592506798474, "lon": 75.94014059447377, "alt_km": 35790.40405480906, "timestamp": "2025-12-05T19:30:25.235102+00:00", "meta": {"OBJECT_NAME": "INTELSAT 20 (IS-20)", "OBJECT_ID": "2012-043A", "EPOCH": "2025-12-05T04:09:38.711808", "MEAN_MOTION": 1.00278846, "ECCENTRICITY": 0.00029413, "INCLINATION": 0.0145, "RA_OF_ASC_NODE": 355.6883, "ARG_OF_PERICENTER": 200.7135, "MEAN_ANOMALY": 8.7419, "EPHEMERIS_TYPE": 0, "CLASSIFICATION_TYPE": "U", "NORAD_CAT_ID": 38740, "ELEMENT_SET_NO": 999, "REV_AT_EPOCH": 4880, "BSTAR": 0, "MEAN_MOTION_DOT": 0, "MEAN_MOTION_DDOT": 0}, "tle": {"line1": "1 38740U 12043A   25339.17336472  .00000000  00000+0  00000+0 0  9995", "line2": "2 38740   0.0145 355.6883 0002941 200.7135   8.7419  1.00278846 48801"}}, "geometry": {"type": "Point", "coordinates": [75.94014059447377, 0.03858592506798474]}}, {"type": "Feature", "properties": {"norad_id": 38749, "name": "INTELSAT 21 (IS-21)", "group": "intelsat", "lat": -0.013751932260934087, "lon": -50.51869007657837, "alt_km": 35781.599797185954, "timestamp": "2025-12-05T19:30:25.235114+00:00", "meta": {"OBJECT_NAME": "INTELSAT 21 (IS-21)", "OBJECT_ID": "2012-045A", "EPOCH": "2025-12-05T03:08:56.950080", "MEAN_MOTION": 1.0027177, "ECCENTRICITY": 0.00022929, "INCLINATION": 0.0021, "RA_OF_ASC_NODE": 349.3902, "ARG_OF_PERICENTER": 258.0279, "MEAN_ANOMALY": 176.0157, "EPHEMERIS_TYPE": 0, "CLASSIFICATION_TYPE": "U", "NORAD_CAT_ID": 38749, "ELEMENT_SET_NO": 999, "REV_AT_EPOCH": 4857, "BSTAR": 0, "MEAN_MOTION_DOT": -2.72e-06, "MEAN_MOTION_DDOT": 0}, "tle": {"line1": "1 38749U 12045A   25339.13121470 -.00000272  00000+0  00000+0 0  9994", "line2": "2 38749   0.0021 349.3902 0002292 258.0279 176.0157  1.00271770 48570"}}, "geometry": {"type": "Point", "coordinates": [-50.51869007657837, -0.013751932260934087]}}, {"type": "Feature", "properties": {"norad_id": 38867, "name": "INTELSAT 23 (IS-23)", "group": "intelsat", "lat": -0.031042925979662808, "lon": -45.542739684602324, "alt_km": 35787.155885571825, "timestamp": "2025-12-05T19:30:25.235126+00:00", "meta": {"OBJECT_NAME": "INTELSAT 23 (IS-23)", "OBJECT_ID": "2012-057A", "EPOCH": "2025-12-05T03:10:19.318656", "MEAN_MOTION": 1.00269316, "ECCENTRICITY": 0.00017305, "INCLINATION": 0.0481, "RA_OF_ASC_NODE": 104.7463, "ARG_OF_PERICENTER": 117.052, "MEAN_ANOMALY": 206.9649, "EPHEMERIS_TYPE": 0, "CLASSIFICATION_TYPE": "U", "NORAD_CAT_ID": 38867, "ELEMENT_SET_NO": 999, "REV_AT_EPOCH": 4800, "BSTAR": 0, "MEAN_MOTION_DOT": -2.72e-06, "MEAN_MOTION_DDOT": 0}, "tle": {"line1": "1 38867U 12057A   25339.13216804 -.00000272  00000+0  00000+0 0  9994", "line2": "2 38867   0.0481 104.7463 0001730 117.0520 206.9649  1.00269316 48005"}}, "geometry": {"type": "Point", "coordinates": [-45.542739684602324, -0.031042925979662808]}}, {"type": "Feature", "properties": {"norad_id": 39360, "name": "FM-6", "group": "intelsat", "lat": 0.002414244707442807, "lon": -108.66439316340211, "alt_km": 35783.454352520814, "timestamp": "2025-12-05T19:30:25.235138+00:00", "meta": {"OBJECT_NAME": "FM-6", "OBJECT_ID": "2013-058A", "EPOCH": "2025-12-04T23:53:38.663232", "MEAN_MOTION": 1.00272109, "ECCENTRICITY": 0.0002861, "INCLINATION": 0.0056, "RA_OF_ASC_NODE": 82.7816, "ARG_OF_PERICENTER": 90.461, "MEAN_ANOMALY": 143.0754, "EPHEMERIS_TYPE": 0, "CLASSIFICATION_TYPE": "U", "NORAD_CAT_ID": 39360, "ELEMENT_SET_NO": 999, "REV_AT_EPOCH": 4412, "BSTAR": 0, "MEAN_MOTION_DOT": -4e-08, "MEAN_MOTION_DDOT": 0}, "tle": {"line1": "1 39360U 13058A   25338.99558638 -.00000004  00000+0  00000+0 0  9995", "line2": "2 39360   0.0056  82.7816 0002861  90.4610 143.0754  1.00272109 44120"}}, "geometry": {"type": "Point", "coordinates": [-108.66439316340211, 0.002414244707442807]}}, {"type": "Feature", "properties": {"norad_id": 40271, "name": "INTELSAT 30 (IS-30)", "group": "intelsat", "lat": -0.033553568492396026, "lon": -87.60680490726526, "alt_km": 35791.12637401658, "timestamp": "2025-12-05T19:30:25.235150+00:00", "meta": {"OBJECT_NAME": "INTELSAT 30 (IS-30)", "OBJECT_ID": "2014-062A", "EPOCH": "2025-12-04T23:32:53.890656", "MEAN_MOTION": 1.0027017, "ECCENTRICITY": 0.0001087, "INCLINATION": 0.0152, "RA_OF_ASC_NODE": 18.8663, "ARG_OF_PERICENTER": 65.0892, "MEAN_ANOMALY": 248.2592, "EPHEMERIS_TYPE": 0, "CLASSIFICATION_TYPE": "U", "NORAD_CAT_ID": 40271, "ELEMENT_SET_NO": 999, "REV_AT_EPOCH": 483, "BSTAR": 0, "MEAN_MOTION_DOT": -1.38e-06, "MEAN_MOTION_DDOT": 0}, "tle": {"line1": "1 40271U 14062A   25338.98117929 -.00000138  00000+0  00000+0 0  9995", "line2": "2 40271   0.0152  18.8663 0001087  65.0892 248.2592  1.00270170  4837"}}, "geometry": {"type": "Point", "coordinates": [-87.60680490726526, -0.033553568492396026]}}, {"type": "Feature", "properties": {"norad_id": 40333, "name": "DIRECTV 14", "group": "intelsat", "lat": -0.036796238131105156, "lon": -91.75659185622794, "alt_km": 35785.42232461261, "timestamp": "2025-12-05T19:30:25.235162+00:00", "meta": {"OBJECT_NAME": "DIRECTV 14", "OBJECT_ID": "2014-078B", "EPOCH": "2025-12-04T21:48:56.350656", "MEAN_MOTION": 1.0027084, "ECCENTRICITY": 5.995e-05, "INCLINATION": 0.0173, "RA_OF_ASC_NODE": 326.0418, "ARG_OF_PERICENTER": 234.0274, "MEAN_ANOMALY": 101.9249, "EPHEMERIS_TYPE": 0, "CLASSIFICATION_TYPE": "U", "NORAD_CAT_ID": 40333, "ELEMENT_SET_NO": 999, "REV_AT_EPOCH": 4009, "BSTAR": 0, "MEAN_MOTION_DOT": -1.12e-06, "MEAN_MOTION_DDOT": 0}, "tle": {"line1": "1 40333U 14078B   25338.90898554 -.00000112  00000+0  00000+0 0  9995", "line2": "2 40333   0.0173 326.0418 0000599 234.0274 101.9249  1.00270840 40096"}}, "geometry": {"type": "Point", "coordinates": [-91.75659185622794, -0.036796238131105156]}}, {"type": "Feature", "properties": {"norad_id": 40663, "name": "DIRECTV 15", "group": "intelsat", "lat": -0.024404072209253853, "lon": -95.4064246852751, "alt_km": 35784.42250002348, "timestamp": "2025-12-05T19:30:25.235173+00:00", "meta": {"OBJECT_NAME": "DIRECTV 15", "OBJECT_ID": "2015-026A", "EPOCH": "2025-12-05T04:26:38.705280", "MEAN_MOTION": 1.00272329, "ECCENTRICITY": 3.692e-05, "INCLINATION": 0.0404, "RA_OF_ASC_NODE": 83.3006, "ARG_OF_PERICENTER": 167.2939, "MEAN_ANOMALY": 147.4493, "EPHEMERIS_TYPE": 0, "CLASSIFICATION_TYPE": "U", "NORAD_CAT_ID": 40663, "ELEMENT_SET_NO": 999, "REV_AT_EPOCH": 3851, "BSTAR": 0, "MEAN_MOTION_DOT": -9.1e-07, "MEAN_MOTION_DDOT": 0}, "tle": {"line1": "1 40663U 15026A   25339.18517020 -.00000091  00000+0  00000+0 0  9998", "line2": "2 40663   0.0404  83.3006 0000369 167.2939 147.4493  1.00272329 38519"}}, "geometry": {"type": "Point", "coordinates": [-95.4064246852751, -0.024404072209253853]}}]}